ONEWEB-0176             
1 48210U 21031A   26101.27145050 -.00000174  00000+0 -50297-3 0  9995
2 48210  87.8933 303.0565 0001783  85.2689 274.8644 13.14502225239525
ONEWEB-0184             
1 48211U 21031B   26101.09225639  .00000227  00000+0  57890-3 0  9991
2 48211  87.8943 303.0866 0002429  75.8475 284.2925 13.14500942239472
ONEWEB-0179             
1 48212U 21031C   26101.27454473  .00000069  00000+0  60539-4 0  9991
2 48212  87.8936 302.7146 0001008  48.6621 311.4628 13.71507471239622
ONEWEB-0180             
1 48213U 21031D   26101.24766308  .00000193  00000+0  48535-3 0  9991
2 48213  87.8938 303.0567 0001684  76.7877 283.3441 13.14500986239420
ONEWEB-0218             
1 48214U 21031E   26101.26986567 -.00000206  00000+0 -58934-3 0  9996
2 48214  87.8935 303.0505 0002318  68.4387 291.6990 13.14501528239580
ONEWEB-0209             
1 48215U 21031F   26101.10652559 -.00000001  00000+0 -37163-4 0  9996
2 48215  87.8924 303.1070 0001572  82.6635 277.4674 13.14501017239564
ONEWEB-0198             
1 48216U 21031G   26101.09081071  .00000285  00000+0  73483-3 0  9996
2 48216  87.8927 303.1107 0001767  72.7193 287.4130 13.14501713239677
ONEWEB-0189             
1 48217U 21031H   26101.25558942  .00000127  00000+0  30827-3 0  9991
2 48217  87.8936 303.0565 0001743  76.2025 283.9299 13.14501188239439
ONEWEB-0196             
1 48218U 21031J   26101.08116446  .00000303  00000+0  78283-3 0  9996
2 48218  87.8933 303.1014 0001667  82.9069 277.2250 13.14502411239415
ONEWEB-0183             
1 48219U 21031K   26101.28413227 -.00000190  00000+0 -54781-3 0  9999
2 48219  87.8928 303.0603 0001528  92.1569 267.9736 13.14501798239532
ONEWEB-0185             
1 48220U 21031L   26101.08194244  .00000353  00000+0  91735-3 0  9993
2 48220  87.8941 303.0876 0001264  84.8104 275.3170 13.14504739239433
ONEWEB-0187             
1 48221U 21031M   26101.29031644  .00001473  00000+0  39367-2 0  9997
2 48221  87.8951 303.0786 0001199  94.1074 266.0193 13.14521135239477
ONEWEB-0192             
1 48222U 21031N   26101.10810971 -.00000099  00000+0 -30187-3 0  9993
2 48222  87.8923 303.0995 0001783  85.3276 274.8057 13.14500866239366
ONEWEB-0219             
1 48223U 21031P   26101.08750063  .00000314  00000+0  81331-3 0  9991
2 48223  87.8931 303.0919 0001499  82.7305 277.3995 13.14501540239561
ONEWEB-0202             
1 48224U 21031Q   26101.06847479  .00000138  00000+0  33798-3 0  9996
2 48224  87.8935 303.1048 0002145  71.9257 288.2106 13.14503526239544
ONEWEB-0204             
1 48225U 21031R   26101.10256618  .00000117  00000+0  28182-3 0  9999
2 48225  87.8938 303.0930 0001421  93.6415 266.4877 13.14502108239447
