[{"OBJECT_NAME":"ONEWEB-0176","OBJECT_ID":"2021-031A","EPOCH":"2026-04-11T06:30:53.323200","MEAN_MOTION":13.14502225,"ECCENTRICITY":0.0001783,"INCLINATION":87.8933,"RA_OF_ASC_NODE":303.0565,"ARG_OF_PERICENTER":85.2689,"MEAN_ANOMALY":274.8644,"EPHEMERIS_TYPE":0,"CLASSIFICATION_TYPE":"U","NORAD_CAT_ID":48210,"ELEMENT_SET_NO":999,"REV_AT_EPOCH":23952,"BSTAR":-0.00050297,"MEAN_MOTION_DOT":-1.74e-06,"MEAN_MOTION_DDOT":0.0},{"OBJECT_NAME":"ONEWEB-0184","OBJECT_ID":"2021-031B","EPOCH":"2026-04-11T02:12:50.952096","MEAN_MOTION":13.14500942,"ECCENTRICITY":0.0002429,"INCLINATION":87.8943,"RA_OF_ASC_NODE":303.0866,"ARG_OF_PERICENTER":75.8475,"MEAN_ANOMALY":284.2925,"EPHEMERIS_TYPE":0,"CLASSIFICATION_TYPE":"U","NORAD_CAT_ID":48211,"ELEMENT_SET_NO":999,"REV_AT_EPOCH":23947,"BSTAR":0.0005789,"MEAN_MOTION_DOT":2.27e-06,"MEAN_MOTION_DDOT":0.0},{"OBJECT_NAME":"ONEWEB-0179","OBJECT_ID":"2021-031C","EPOCH":"2026-04-11T06:35:20.664672","MEAN_MOTION":13.71507471,"ECCENTRICITY":0.0001008,"INCLINATION":87.8936,"RA_OF_ASC_NODE":302.7146,"ARG_OF_PERICENTER":48.6621,"MEAN_ANOMALY":311.4628,"EPHEMERIS_TYPE":0,"CLASSIFICATION_TYPE":"U","NORAD_CAT_ID":48212,"ELEMENT_SET_NO":999,"REV_AT_EPOCH":23962,"BSTAR":6.0539000000000004e-05,"MEAN_MOTION_DOT":6.9e-07,"MEAN_MOTION_DDOT":0.0},{"OBJECT_NAME":"ONEWEB-0180","OBJECT_ID":"2021-031D","EPOCH":"2026-04-11T05:56:38.090112","MEAN_MOTION":13.14500986,"ECCENTRICITY":0.0001684,"INCLINATION":87.8938,"RA_OF_ASC_NODE":303.0567,"ARG_OF_PERICENTER":76.7877,"MEAN_ANOMALY":283.3441,"EPHEMERIS_TYPE":0,"CLASSIFICATION_TYPE":"U","NORAD_CAT_ID":48213,"ELEMENT_SET_NO":999,"REV_AT_EPOCH":23942,"BSTAR":0.00048535,"MEAN_MOTION_DOT":1.93e-06,"MEAN_MOTION_DDOT":0.0},{"OBJECT_NAME":"ONEWEB-0218","OBJECT_ID":"2021-031E","EPOCH":"2026-04-11T06:28:36.393888","MEAN_MOTION":13.14501528,"ECCENTRICITY":0.0002318,"INCLINATION":87.8935,"RA_OF_ASC_NODE":303.0505,"ARG_OF_PERICENTER":68.4387,"MEAN_ANOMALY":291.699,"EPHEMERIS_TYPE":0,"CLASSIFICATION_TYPE":"U","NORAD_CAT_ID":48214,"ELEMENT_SET_NO":999,"REV_AT_EPOCH":23958,"BSTAR":-0.0005893399999999999,"MEAN_MOTION_DOT":-2.06e-06,"MEAN_MOTION_DDOT":0.0},{"OBJECT_NAME":"ONEWEB-0209","OBJECT_ID":"2021-031F","EPOCH":"2026-04-11T02:33:23.810976","MEAN_MOTION":13.14501017,"ECCENTRICITY":0.0001572,"INCLINATION":87.8924,"RA_OF_ASC_NODE":303.107,"ARG_OF_PERICENTER":82.6635,"MEAN_ANOMALY":277.4674,"EPHEMERIS_TYPE":0,"CLASSIFICATION_TYPE":"U","NORAD_CAT_ID":48215,"ELEMENT_SET_NO":999,"REV_AT_EPOCH":23956,"BSTAR":-3.7163e-05,"MEAN_MOTION_DOT":-1e-08,"MEAN_MOTION_DDOT":0.0},{"OBJECT_NAME":"ONEWEB-0198","OBJECT_ID":"2021-031G","EPOCH":"2026-04-11T02:10:46.045344","MEAN_MOTION":13.14501713,"ECCENTRICITY":0.0001767,"INCLINATION":87.8927,"RA_OF_ASC_NODE":303.1107,"ARG_OF_PERICENTER":72.7193,"MEAN_ANOMALY":287.413,"EPHEMERIS_TYPE":0,"CLASSIFICATION_TYPE":"U","NORAD_CAT_ID":48216,"ELEMENT_SET_NO":999,"REV_AT_EPOCH":23967,"BSTAR":0.00073483,"MEAN_MOTION_DOT":2.85e-06,"MEAN_MOTION_DDOT":0.0},{"OBJECT_NAME":"ONEWEB-0189","OBJECT_ID":"2021-031H","EPOCH":"2026-04-11T06:08:02.925888","MEAN_MOTION":13.14501188,"ECCENTRICITY":0.0001743,"INCLINATION":87.8936,"RA_OF_ASC_NODE":303.0565,"ARG_OF_PERICENTER":76.2025,"MEAN_ANOMALY":283.9299,"EPHEMERIS_TYPE":0,"CLASSIFICATION_TYPE":"U","NORAD_CAT_ID":48217,"ELEMENT_SET_NO":999,"REV_AT_EPOCH":23943,"BSTAR":0.00030827,"MEAN_MOTION_DOT":1.27e-06,"MEAN_MOTION_DDOT":0.0},{"OBJECT_NAME":"ONEWEB-0196","OBJECT_ID":"2021-031J","EPOCH":"2026-04-11T01:56:52.609344","MEAN_MOTION":13.14502411,"ECCENTRICITY":0.0001667,"INCLINATION":87.8933,"RA_OF_ASC_NODE":303.1014,"ARG_OF_PERICENTER":82.9069,"MEAN_ANOMALY":277.225,"EPHEMERIS_TYPE":0,"CLASSIFICATION_TYPE":"U","NORAD_CAT_ID":48218,"ELEMENT_SET_NO":999,"REV_AT_EPOCH":23941,"BSTAR":0.0007828300000000001,"MEAN_MOTION_DOT":3.03e-06,"MEAN_MOTION_DDOT":0.0},{"OBJECT_NAME":"ONEWEB-0183","OBJECT_ID":"2021-031K","EPOCH":"2026-04-11T06:49:09.028128","MEAN_MOTION":13.14501798,"ECCENTRICITY":0.0001528,"INCLINATION":87.8928,"RA_OF_ASC_NODE":303.0603,"ARG_OF_PERICENTER":92.1569,"MEAN_ANOMALY":267.9736,"EPHEMERIS_TYPE":0,"CLASSIFICATION_TYPE":"U","NORAD_CAT_ID":48219,"ELEMENT_SET_NO":999,"REV_AT_EPOCH":23953,"BSTAR":-0.00054781,"MEAN_MOTION_DOT":-1.9e-06,"MEAN_MOTION_DDOT":0.0},{"OBJECT_NAME":"ONEWEB-0185","OBJECT_ID":"2021-031L","EPOCH":"2026-04-11T01:57:59.826816","MEAN_MOTION":13.14504739,"ECCENTRICITY":0.0001264,"INCLINATION":87.8941,"RA_OF_ASC_NODE":303.0876,"ARG_OF_PERICENTER":84.8104,"MEAN_ANOMALY":275.317,"EPHEMERIS_TYPE":0,"CLASSIFICATION_TYPE":"U","NORAD_CAT_ID":48220,"ELEMENT_SET_NO":999,"REV_AT_EPOCH":23943,"BSTAR":0.00091735,"MEAN_MOTION_DOT":3.53e-06,"MEAN_MOTION_DDOT":0.0},{"OBJECT_NAME":"ONEWEB-0187","OBJECT_ID":"2021-031M","EPOCH":"2026-04-11T06:58:03.340416","MEAN_MOTION":13.14521135,"ECCENTRICITY":0.0001199,"INCLINATION":87.8951,"RA_OF_ASC_NODE":303.0786,"ARG_OF_PERICENTER":94.1074,"MEAN_ANOMALY":266.0193,"EPHEMERIS_TYPE":0,"CLASSIFICATION_TYPE":"U","NORAD_CAT_ID":48221,"ELEMENT_SET_NO":999,"REV_AT_EPOCH":23947,"BSTAR":0.0039367000000000004,"MEAN_MOTION_DOT":1.473e-05,"MEAN_MOTION_DDOT":0.0},{"OBJECT_NAME":"ONEWEB-0192","OBJECT_ID":"2021-031N","EPOCH":"2026-04-11T02:35:40.678944","MEAN_MOTION":13.14500866,"ECCENTRICITY":0.0001783,"INCLINATION":87.8923,"RA_OF_ASC_NODE":303.0995,"ARG_OF_PERICENTER":85.3276,"MEAN_ANOMALY":274.8057,"EPHEMERIS_TYPE":0,"CLASSIFICATION_TYPE":"U","NORAD_CAT_ID":48222,"ELEMENT_SET_NO":999,"REV_AT_EPOCH":23936,"BSTAR":-0.00030187000000000004,"MEAN_MOTION_DOT":-9.9e-07,"MEAN_MOTION_DDOT":0.0},{"OBJECT_NAME":"ONEWEB-0219","OBJECT_ID":"2021-031P","EPOCH":"2026-04-11T02:06:00.054432","MEAN_MOTION":13.1450154,"ECCENTRICITY":0.0001499,"INCLINATION":87.8931,"RA_OF_ASC_NODE":303.0919,"ARG_OF_PERICENTER":82.7305,"MEAN_ANOMALY":277.3995,"EPHEMERIS_TYPE":0,"CLASSIFICATION_TYPE":"U","NORAD_CAT_ID":48223,"ELEMENT_SET_NO":999,"REV_AT_EPOCH":23956,"BSTAR":0.00081331,"MEAN_MOTION_DOT":3.14e-06,"MEAN_MOTION_DDOT":0.0},{"OBJECT_NAME":"ONEWEB-0202","OBJECT_ID":"2021-031Q","EPOCH":"2026-04-11T01:38:36.221856","MEAN_MOTION":13.14503526,"ECCENTRICITY":0.0002145,"INCLINATION":87.8935,"RA_OF_ASC_NODE":303.1048,"ARG_OF_PERICENTER":71.9257,"MEAN_ANOMALY":288.2106,"EPHEMERIS_TYPE":0,"CLASSIFICATION_TYPE":"U","NORAD_CAT_ID":48224,"ELEMENT_SET_NO":999,"REV_AT_EPOCH":23954,"BSTAR":0.00033798,"MEAN_MOTION_DOT":1.38e-06,"MEAN_MOTION_DDOT":0.0},{"OBJECT_NAME":"ONEWEB-0204","OBJECT_ID":"2021-031R","EPOCH":"2026-04-11T02:27:41.717952","MEAN_MOTION":13.14502108,"ECCENTRICITY":0.0001421,"INCLINATION":87.8938,"RA_OF_ASC_NODE":303.093,"ARG_OF_PERICENTER":93.6415,"MEAN_ANOMALY":266.4877,"EPHEMERIS_TYPE":0,"CLASSIFICATION_TYPE":"U","NORAD_CAT_ID":48225,"ELEMENT_SET_NO":999,"REV_AT_EPOCH":23944,"BSTAR":0.00028182,"MEAN_MOTION_DOT":1.17e-06,"MEAN_MOTION_DDOT":0.0}]